OBJECT C                
1 57582U 23117C   24118.21073099  .00013624  00000+0  72849-3 0  9996
2 57582  97.4883 190.9855 0012543 111.1900 249.0674 15.15124235 39466
